start=new Date('2022-06-19T00:00:00.000Z').valueOf();
sats=[{"SITE":"AFETR","NORAD_CAT_ID":"51956","APOAPSIS":"540.979","MEAN_ELEMENT_THEORY":"SGP4","CENTER_NAME":"EARTH","TLE_LINE2":"2 51956  53.2158  26.1025 0001819  44.5129  93.5808 15.08848027  1302","SEMIMAJOR_AXIS":"6917.856","PERIAPSIS":"538.462","RA_OF_ASC_NODE":"26.1025","MEAN_MOTION_DOT":"0.00010846","OBJECT_ID":"2022-025A","RCS_SIZE":"LARGE","GP_ID":"206291494","MEAN_MOTION_DDOT":"0.0000000000000","ECCENTRICITY":"0.00018190","CLASSIFICATION_TYPE":"U","BSTAR":"0.00069833000000","MEAN_MOTION":"15.08848027","LAUNCH_DATE":"2022-03-09","PERIOD":"95.437","TIME_SYSTEM":"UTC","REV_AT_EPOCH":"130","OBJECT_TYPE":"PAYLOAD","DECAY_DATE":null,"FILE":"3497002","EPHEMERIS_TYPE":"0","TLE_LINE1":"1 51956U 22025A   22167.08334491  .00010846  00000-0  69833-3 0  9998","REF_FRAME":"TEME","OBJECT_NAME":"STARLINK-3700","EPOCH":"2022-06-16T02:00:01.000224","INCLINATION":"53.2158","COUNTRY_CODE":"US","ARG_OF_PERICENTER":"44.5129","ELEMENT_SET_NO":"999","MEAN_ANOMALY":"93.5808"},{"CLASSIFICATION_TYPE":"U","BSTAR":"0.00152750000000","MEAN_MOTION":"15.08831661","PERIOD":"95.438","LAUNCH_DATE":"2022-03-09","TIME_SYSTEM":"UTC","OBJECT_ID":"2022-025B","GP_ID":"206291387","RCS_SIZE":"LARGE","MEAN_MOTION_DDOT":"0.0000000000000","ECCENTRICITY":"0.00016870","SEMIMAJOR_AXIS":"6917.906","PERIAPSIS":"538.604","RA_OF_ASC_NODE":"26.0995","MEAN_MOTION_DOT":"0.00024100","NORAD_CAT_ID":"51957","SITE":"AFETR","APOAPSIS":"540.938","CENTER_NAME":"EARTH","MEAN_ELEMENT_THEORY":"SGP4","TLE_LINE2":"2 51957  53.2151  26.0995 0001687  50.3040 187.7932 15.08831661  1301","ARG_OF_PERICENTER":"50.3040","ELEMENT_SET_NO":"999","MEAN_ANOMALY":"187.7932","EPOCH":"2022-06-16T02:00:01.000224","OBJECT_NAME":"STARLINK-3694","INCLINATION":"53.2151","COUNTRY_CODE":"US","TLE_LINE1":"1 51957U 22025B   22167.08334491  .00024100  00000-0  15275-2 0  9997","REF_FRAME":"TEME","REV_AT_EPOCH":"130","OBJECT_TYPE":"PAYLOAD","DECAY_DATE":null,"EPHEMERIS_TYPE":"0","FILE":"3497002"},{"INCLINATION":"53.2170","COUNTRY_CODE":"US","EPOCH":"2022-06-16T02:00:01.000224","OBJECT_NAME":"STARLINK-3692","ELEMENT_SET_NO":"999","MEAN_ANOMALY":"116.7567","ARG_OF_PERICENTER":"41.3283","OBJECT_TYPE":"PAYLOAD","DECAY_DATE":null,"FILE":"3497002","EPHEMERIS_TYPE":"0","REV_AT_EPOCH":"130","REF_FRAME":"TEME","TLE_LINE1":"1 51958U 22025C   22167.08334491  .00017193  00000-0  10955-2 0  9992","MEAN_MOTION_DDOT":"0.0000000000000","GP_ID":"206291049","RCS_SIZE":"LARGE","ECCENTRICITY":"0.00018960","OBJECT_ID":"2022-025C","LAUNCH_DATE":"2022-03-09","PERIOD":"95.437","TIME_SYSTEM":"UTC","CLASSIFICATION_TYPE":"U","BSTAR":"0.00109550000000","MEAN_MOTION":"15.08845740","APOAPSIS":"541.039","MEAN_ELEMENT_THEORY":"SGP4","CENTER_NAME":"EARTH","TLE_LINE2":"2 51958  53.2170  26.1042 0001896  41.3283 116.7567 15.08845740  1307","SITE":"AFETR","NORAD_CAT_ID":"51958","RA_OF_ASC_NODE":"26.1042","MEAN_MOTION_DOT":"0.00017193","SEMIMAJOR_AXIS":"6917.863","PERIAPSIS":"538.416"},{"DECAY_DATE":null,"FILE":"3497002","EPHEMERIS_TYPE":"0","OBJECT_TYPE":"PAYLOAD","REV_AT_EPOCH":"130","REF_FRAME":"TEME","TLE_LINE1":"1 51959U 22025D   22167.08334491  .00057452  00000-0  36013-2 0  9998","COUNTRY_CODE":"US","INCLINATION":"53.2160","EPOCH":"2022-06-16T02:00:01.000224","OBJECT_NAME":"STARLINK-3704","MEAN_ANOMALY":"174.3742","ELEMENT_SET_NO":"999","ARG_OF_PERICENTER":"43.7326","TLE_LINE2":"2 51959  53.2160  26.1002 0001962  43.7326 174.3742 15.08813171  1309","APOAPSIS":"541.185","CENTER_NAME":"EARTH","MEAN_ELEMENT_THEORY":"SGP4","SITE":"AFETR","NORAD_CAT_ID":"51959","MEAN_MOTION_DOT":"0.00057452","RA_OF_ASC_NODE":"26.1002","PERIAPSIS":"538.470","SEMIMAJOR_AXIS":"6917.962","ECCENTRICITY":"0.00019620","GP_ID":"206291251","MEAN_MOTION_DDOT":"0.0000000000000","RCS_SIZE":"LARGE","OBJECT_ID":"2022-025D","TIME_SYSTEM":"UTC","PERIOD":"95.439","LAUNCH_DATE":"2022-03-09","MEAN_MOTION":"15.08813171","CLASSIFICATION_TYPE":"U","BSTAR":"0.00360130000000"},{"EPOCH":"2022-06-16T02:00:01.000224","OBJECT_NAME":"STARLINK-3691","INCLINATION":"53.2132","COUNTRY_CODE":"US","ARG_OF_PERICENTER":"44.9474","ELEMENT_SET_NO":"999","MEAN_ANOMALY":"213.1159","REV_AT_EPOCH":"130","OBJECT_TYPE":"PAYLOAD","DECAY_DATE":null,"EPHEMERIS_TYPE":"0","FILE":"3497002","TLE_LINE1":"1 51960U 22025E   22167.08334491  .00056532  00000-0  35440-2 0  9991","REF_FRAME":"TEME","OBJECT_ID":"2022-025E","GP_ID":"206291149","MEAN_MOTION_DDOT":"0.0000000000000","RCS_SIZE":"LARGE","ECCENTRICITY":"0.00018550","BSTAR":"0.00354400000000","CLASSIFICATION_TYPE":"U","MEAN_MOTION":"15.08817126","LAUNCH_DATE":"2022-03-09","PERIOD":"95.439","TIME_SYSTEM":"UTC","SITE":"AFETR","NORAD_CAT_ID":"51960","APOAPSIS":"541.099","CENTER_NAME":"EARTH","MEAN_ELEMENT_THEORY":"SGP4","TLE_LINE2":"2 51960  53.2132  26.0969 0001855  44.9474 213.1159 15.08817126  1307","SEMIMAJOR_AXIS":"6917.950","PERIAPSIS":"538.532","RA_OF_ASC_NODE":"26.0969","MEAN_MOTION_DOT":"0.00056532"},{"REV_AT_EPOCH":"130","OBJECT_TYPE":"PAYLOAD","DECAY_DATE":null,"FILE":"3497002","EPHEMERIS_TYPE":"0","TLE_LINE1":"1 51961U 22025F   22167.08334491  .00062016  00000-0  38826-2 0  9997","REF_FRAME":"TEME","OBJECT_NAME":"STARLINK-3689","EPOCH":"2022-06-16T02:00:01.000224","INCLINATION":"53.2166","COUNTRY_CODE":"US","ARG_OF_PERICENTER":"49.1326","ELEMENT_SET_NO":"999","MEAN_ANOMALY":"128.9282","NORAD_CAT_ID":"51961","SITE":"AFETR","APOAPSIS":"541.056","CENTER_NAME":"EARTH","MEAN_ELEMENT_THEORY":"SGP4","TLE_LINE2":"2 51961  53.2166  26.1017 0001810  49.1326 128.9282 15.08820991  1308","SEMIMAJOR_AXIS":"6917.938","PERIAPSIS":"538.551","RA_OF_ASC_NODE":"26.1017","MEAN_MOTION_DOT":"0.00062016","OBJECT_ID":"2022-025F","GP_ID":"206291042","RCS_SIZE":"LARGE","MEAN_MOTION_DDOT":"0.0000000000000","ECCENTRICITY":"0.00018100","BSTAR":"0.00388260000000","CLASSIFICATION_TYPE":"U","MEAN_MOTION":"15.08820991","PERIOD":"95.439","LAUNCH_DATE":"2022-03-09","TIME_SYSTEM":"UTC"},{"CLASSIFICATION_TYPE":"U","BSTAR":"0.00090558000000","MEAN_MOTION":"15.08841085","LAUNCH_DATE":"2022-03-09","PERIOD":"95.437","TIME_SYSTEM":"UTC","OBJECT_ID":"2022-025G","MEAN_MOTION_DDOT":"0.0000000000000","GP_ID":"206291395","RCS_SIZE":"LARGE","ECCENTRICITY":"0.00018940","SEMIMAJOR_AXIS":"6917.877","PERIAPSIS":"538.432","RA_OF_ASC_NODE":"26.0965","MEAN_MOTION_DOT":"0.00014154","NORAD_CAT_ID":"51962","SITE":"AFETR","CENTER_NAME":"EARTH","MEAN_ELEMENT_THEORY":"SGP4","APOAPSIS":"541.052","TLE_LINE2":"2 51962  53.2131  26.0965 0001894  41.6786 251.2155 15.08841085  1307","ARG_OF_PERICENTER":"41.6786","ELEMENT_SET_NO":"999","MEAN_ANOMALY":"251.2155","OBJECT_NAME":"STARLINK-3697","EPOCH":"2022-06-16T02:00:01.000224","INCLINATION":"53.2131","COUNTRY_CODE":"US","TLE_LINE1":"1 51962U 22025G   22167.08334491  .00014154  00000-0  90558-3 0  9999","REF_FRAME":"TEME","REV_AT_EPOCH":"130","OBJECT_TYPE":"PAYLOAD","EPHEMERIS_TYPE":"0","FILE":"3497002","DECAY_DATE":null},{"EPOCH":"2022-06-16T02:00:01.000224","OBJECT_NAME":"STARLINK-3675","COUNTRY_CODE":"US","INCLINATION":"53.2176","ARG_OF_PERICENTER":"45.1592","MEAN_ANOMALY":"152.8559","ELEMENT_SET_NO":"999","REV_AT_EPOCH":"130","DECAY_DATE":null,"FILE":"3497002","EPHEMERIS_TYPE":"0","OBJECT_TYPE":"PAYLOAD","TLE_LINE1":"1 51963U 22025H   22167.08334491  .00054199  00000-0  33993-2 0  9992","REF_FRAME":"TEME","OBJECT_ID":"2022-025H","ECCENTRICITY":"0.00021090","RCS_SIZE":"LARGE","GP_ID":"206291598","MEAN_MOTION_DDOT":"0.0000000000000","MEAN_MOTION":"15.08820149","CLASSIFICATION_TYPE":"U","BSTAR":"0.00339930000000","TIME_SYSTEM":"UTC","LAUNCH_DATE":"2022-03-09","PERIOD":"95.439","NORAD_CAT_ID":"51963","SITE":"AFETR","TLE_LINE2":"2 51963  53.2176  26.1021 0002109  45.1592 152.8559 15.08820149  1307","APOAPSIS":"541.265","CENTER_NAME":"EARTH","MEAN_ELEMENT_THEORY":"SGP4","PERIAPSIS":"538.347","SEMIMAJOR_AXIS":"6917.941","MEAN_MOTION_DOT":"0.00054199","RA_OF_ASC_NODE":"26.1021"},{"DECAY_DATE":null,"FILE":"3497002","EPHEMERIS_TYPE":"0","OBJECT_TYPE":"PAYLOAD","REV_AT_EPOCH":"130","REF_FRAME":"TEME","TLE_LINE1":"1 51964U 22025J   22167.08334491  .00056700  00000-0  35545-2 0  9998","COUNTRY_CODE":"US","INCLINATION":"53.2167","OBJECT_NAME":"STARLINK-3690","EPOCH":"2022-06-16T02:00:01.000224","MEAN_ANOMALY":"297.1914","ELEMENT_SET_NO":"999","ARG_OF_PERICENTER":"40.8384","TLE_LINE2":"2 51964  53.2167  26.0830 0001951  40.8384 297.1914 15.08815641  1309","APOAPSIS":"541.170","MEAN_ELEMENT_THEORY":"SGP4","CENTER_NAME":"EARTH","NORAD_CAT_ID":"51964","SITE":"AFETR","MEAN_MOTION_DOT":"0.00056700","RA_OF_ASC_NODE":"26.0830","PERIAPSIS":"538.470","SEMIMAJOR_AXIS":"6917.955","ECCENTRICITY":"0.00019510","MEAN_MOTION_DDOT":"0.0000000000000","GP_ID":"206291495","RCS_SIZE":"LARGE","OBJECT_ID":"2022-025J","TIME_SYSTEM":"UTC","LAUNCH_DATE":"2022-03-09","PERIOD":"95.439","MEAN_MOTION":"15.08815641","CLASSIFICATION_TYPE":"U","BSTAR":"0.00355450000000"},{"DECAY_DATE":null,"FILE":"3497002","EPHEMERIS_TYPE":"0","OBJECT_TYPE":"PAYLOAD","REV_AT_EPOCH":"130","REF_FRAME":"TEME","TLE_LINE1":"1 51965U 22025K   22167.08334491 -.00058703  00000-0 -36971-2 0  9990","COUNTRY_CODE":"US","INCLINATION":"53.2142","EPOCH":"2022-06-16T02:00:01.000224","OBJECT_NAME":"STARLINK-3696","MEAN_ANOMALY":"235.2229","ELEMENT_SET_NO":"999","ARG_OF_PERICENTER":"42.8437","TLE_LINE2":"2 51965  53.2142  26.0956 0001755  42.8437 235.2229 15.08873499  1302","APOAPSIS":"540.857","MEAN_ELEMENT_THEORY":"SGP4","CENTER_NAME":"EARTH","SITE":"AFETR","NORAD_CAT_ID":"51965","MEAN_MOTION_DOT":"-0.00058703","RA_OF_ASC_NODE":"26.0956","PERIAPSIS":"538.429","SEMIMAJOR_AXIS":"6917.778","ECCENTRICITY":"0.00017550","GP_ID":"206291388","MEAN_MOTION_DDOT":"0.0000000000000","RCS_SIZE":"LARGE","OBJECT_ID":"2022-025K","TIME_SYSTEM":"UTC","LAUNCH_DATE":"2022-03-09","PERIOD":"95.435","MEAN_MOTION":"15.08873499","BSTAR":"-0.00369710000000","CLASSIFICATION_TYPE":"U"}];
